{
  "type": "FeatureCollection",
  "features": [
    {
      "type": "Feature",
      "geometry": {
        "type": "Polygon",
        "coordinates": [
          [
            [
              127.23067489282342,
              50.128303988501614
            ],
            [
              127.8493251071766,
              50.128303988501614
            ],
            [
              127.8493251071766,
              50.451696011498385
            ],
            [
              127.23067489282342,
              50.451696011498385
            ],
            [
              127.23067489282342,
              50.128303988501614
            ]
          ]
        ]
      },
      "properties": {
        "aoi_id": "blagoveshchensk",
        "name": "Благовещенск — слияние Амура и Зеи",
        "lat": 50.29,
        "lon": 127.54,
        "rivers": "Амур; Зея",
        "landscape": "Широкая двусторонняя пойма в зоне слияния двух крупных рек, низкая городская набережная, дачные массивы на островах.",
        "traps": "ВПП и рулёжки аэропорта Игнатьево, крупные плоские кровли, асфальтовые площадки — на SAR это тёмные пятна с УЭПР, близкой к водной; отсекаются по HAND и слою застройки WorldCover.",
        "area_km2": 1584.0,
        "utm_crs": "EPSG:32652"
      }
    },
    {
      "type": "Feature",
      "geometry": {
        "type": "Polygon",
        "coordinates": [
          [
            [
              127.8709350318081,
              51.21830398850162
            ],
            [
              128.3890649681919,
              51.21830398850162
            ],
            [
              128.3890649681919,
              51.54169601149839
            ],
            [
              127.8709350318081,
              51.54169601149839
            ],
            [
              127.8709350318081,
              51.21830398850162
            ]
          ]
        ]
      },
      "properties": {
        "aoi_id": "svobodny",
        "name": "Свободный — среднее течение Зеи",
        "lat": 51.38,
        "lon": 128.13,
        "rivers": "Зея",
        "landscape": "Меандрирующее русло с многочисленными старицами и протоками.",
        "traps": "Старицы и пойменные озёра — постоянная вода, которую нельзя засчитывать в прирост затопления (вычитается по JRC GSW).",
        "area_km2": 1296.0,
        "utm_crs": "EPSG:32652"
      }
    },
    {
      "type": "Feature",
      "geometry": {
        "type": "Polygon",
        "coordinates": [
          [
            [
              127.70268099693384,
              49.485253323751344
            ],
            [
              128.25731900306616,
              49.485253323751344
            ],
            [
              128.25731900306616,
              49.75474667624865
            ],
            [
              127.70268099693384,
              49.75474667624865
            ],
            [
              127.70268099693384,
              49.485253323751344
            ]
          ]
        ]
      },
      "properties": {
        "aoi_id": "konstantinovka",
        "name": "Константиновка — пойма Амура",
        "lat": 49.62,
        "lon": 127.98,
        "rivers": "Амур",
        "landscape": "Наиболее широкая незастроенная пойма Амура в пределах области.",
        "traps": "Сезонные соевые поля с гладкой поверхностью после уборки.",
        "area_km2": 1200.0,
        "utm_crs": "EPSG:32652"
      }
    },
    {
      "type": "Feature",
      "geometry": {
        "type": "Polygon",
        "coordinates": [
          [
            [
              128.41041289724043,
              49.485253323751344
            ],
            [
              128.90958710275956,
              49.485253323751344
            ],
            [
              128.90958710275956,
              49.75474667624865
            ],
            [
              128.41041289724043,
              49.75474667624865
            ],
            [
              128.41041289724043,
              49.485253323751344
            ]
          ]
        ]
      },
      "properties": {
        "aoi_id": "poyarkovo",
        "name": "Поярково — Михайловский район, Амур",
        "lat": 49.62,
        "lon": 128.66,
        "rivers": "Амур",
        "landscape": "Пойменные озёра и протоки, приграничный участок Амура.",
        "traps": "Песчаные косы и отмели — сухой гладкий песок тоже даёт низкую УЭПР.",
        "area_km2": 1080.0,
        "utm_crs": "EPSG:32652"
      }
    },
    {
      "type": "Feature",
      "geometry": {
        "type": "Polygon",
        "coordinates": [
          [
            [
              128.2562537537192,
              50.78525332375135
            ],
            [
              128.6837462462808,
              50.78525332375135
            ],
            [
              128.6837462462808,
              51.054746676248655
            ],
            [
              128.2562537537192,
              51.054746676248655
            ],
            [
              128.2562537537192,
              50.78525332375135
            ]
          ]
        ]
      },
      "properties": {
        "aoi_id": "belogorsk",
        "name": "Белогорск — река Томь",
        "lat": 50.92,
        "lon": 128.47,
        "rivers": "Томь",
        "landscape": "Равнинная пойма притока Зеи среди распаханной Зейско-Буреинской равнины.",
        "traps": "Переувлажнённые и залитые сельхозполя весной: по MNDWI похожи на воду, но по SAR дают промежуточную УЭПР. Классический кейс на разделение 'вода' / 'мокрая почва'.",
        "area_km2": 900.0,
        "utm_crs": "EPSG:32652"
      }
    }
  ]
}